[{"OBJECT_NAME":"STARLINK-1894","OBJECT_ID":"2020-074F","EPOCH":"2026-03-10T00:00:02.999808","MEAN_MOTION":15.80712393,"ECCENTRICITY":0.00023349,"INCLINATION":53.0425,"RA_OF_ASC_NODE":276.1954,"ARG_OF_PERICENTER":282.1358,"MEAN_ANOMALY":10.1034,"EPHEMERIS_TYPE":0,"CLASSIFICATION_TYPE":"U","NORAD_CAT_ID":46744,"ELEMENT_SET_NO":999,"REV_AT_EPOCH":597,"BSTAR":0.0014063958,"MEAN_MOTION_DOT":0.00284143,"MEAN_MOTION_DDOT":0},{"OBJECT_NAME":"STARLINK-36872","OBJECT_ID":"2026-037Z","EPOCH":"2026-03-09T22:00:01.999584","MEAN_MOTION":15.82036961,"ECCENTRICITY":0.00017049,"INCLINATION":42.999,"RA_OF_ASC_NODE":196.928,"ARG_OF_PERICENTER":275.3655,"MEAN_ANOMALY":313.1683,"EPHEMERIS_TYPE":0,"CLASSIFICATION_TYPE":"U","NORAD_CAT_ID":67955,"ELEMENT_SET_NO":999,"REV_AT_EPOCH":323,"BSTAR":-0.00025650246,"MEAN_MOTION_DOT":-0.0005426,"MEAN_MOTION_DDOT":0}]
